NORAD_CAT_ID,OBJECT_NAME,OBJECT_TYPE,EPOCH,MEAN_MOTION,ECCENTRICITY,INCLINATION,RA_OF_ASC_NODE,ARG_OF_PERICENTER,MEAN_ANOMALY,BSTAR,MEAN_MOTION_DOT,MEAN_MOTION_DDOT,TLE_LINE0,TLE_LINE1,TLE_LINE2,SEMIMAJOR_AXIS,PERIOD,APOGEE,PERIGEE,DECAYED
53548.0,STARLINK-4513,PAYLOAD,2024-07-09 12:39:21,15.08838171,0.0001428,53.2166,274.273,99.8763,260.239,6.7839e-05,7.92e-06,0.0,0 STARLINK-4513,1 53548U 22101X   24191.52733495  .00000792  00000-0  67839-4 0  9991,2 53548  53.2166 274.2730 0001428  99.8763 260.2390 15.08838171104494,6917.886,95.438,540.739,538.763,0.0
53548.0,STARLINK-4513,PAYLOAD,2024-07-10 12:30:08,15.08838319,0.0001321,53.2164,269.8122,98.8743,261.2399,1.8569e-05,8e-08,0.0,0 STARLINK-4513,1 53548U 22101X   24192.52093606  .00000008  00000-0  18569-4 0  9991,2 53548  53.2164 269.8122 0001321  98.8743 261.2399 15.08838319104647,6917.886,95.438,540.664,538.837,0.0
53548.0,STARLINK-4513,PAYLOAD,2024-07-11 04:24:00,15.08840858,0.0001346,53.2163,266.8383,93.7039,266.4107,0.00021779,3.18e-05,0.0,0 STARLINK-4513,1 53548U 22101X   24193.18333590  .00003180  00000-0  21779-3 0  9993,2 53548  53.2163 266.8383 0001346  93.7039 266.4107 15.08840858104747,6917.878,95.438,540.674,538.812,0.0
53548.0,STARLINK-4513,PAYLOAD,2024-07-11 12:20:55,15.08844876,0.0001236,53.2152,265.35,86.2078,273.9055,0.00019813,2.867e-05,0.0,0 STARLINK-4513,1 53548U 22101X   24193.51453397  .00002867  00000-0  19813-3 0  9995,2 53548  53.2152 265.3500 0001236  86.2078 273.9055 15.08844876104792,6917.865,95.437,540.586,538.875,0.0
53548.0,STARLINK-4513,PAYLOAD,2024-07-12 10:36:19,15.08842357,0.0001261,53.2159,261.1869,80.8462,279.2672,0.00013449,1.853e-05,0.0,0 STARLINK-4513,1 53548U 22101X   24194.44189606  .00001853  00000-0  13449-3 0  9990,2 53548  53.2159 261.1869 0001261  80.8462 279.2672 15.08842357104938,6917.873,95.437,540.611,538.866,0.0
53548.0,STARLINK-4513,PAYLOAD,2024-07-12 21:44:01,15.08844009,0.0001353,53.216,259.1059,81.7365,278.3781,0.00012822,1.754e-05,0.0,0 STARLINK-4513,1 53548U 22101X   24194.90557545  .00001754  00000-0  12822-3 0  9996,2 53548  53.2160 259.1059 0001353  81.7365 278.3781 15.08844009105008,6917.868,95.437,540.669,538.797,0.0
53548.0,STARLINK-4513,PAYLOAD,2024-07-13 10:27:07,15.08838657,0.0001428,53.2151,256.7257,86.1556,273.9599,1.0775e-05,-1.16e-06,0.0,0 STARLINK-4513,1 53548U 22101X   24195.43549883 -.00000116  00000-0  10775-4 0  9999,2 53548  53.2151 256.7257 0001428  86.1556 273.9599 15.08838657105083,6917.884,95.438,540.737,538.762,0.0
53548.0,STARLINK-4513,PAYLOAD,2024-07-13 13:37:53,15.08841086,0.0001447,53.2152,256.1307,89.1899,270.9259,4.5947e-05,4.43e-06,0.0,0 STARLINK-4513,1 53548U 22101X   24195.56797760  .00000443  00000-0  45947-4 0  9993,2 53548  53.2152 256.1307 0001447  89.1899 270.9259 15.08841086105101,6917.877,95.437,540.743,538.741,0.0
53548.0,STARLINK-4513,PAYLOAD,2024-07-13 21:34:48,15.08848052,0.0001493,53.2165,254.6442,85.504,274.6122,0.00010108,1.321e-05,0.0,0 STARLINK-4513,1 53548U 22101X   24195.89917419  .00001321  00000-0  10108-3 0  9990,2 53548  53.2165 254.6442 0001493  85.5040 274.6122 15.08848052105152,6917.856,95.437,540.754,538.688,0.0
53548.0,STARLINK-4513,PAYLOAD,2024-07-14 10:17:53,15.08844268,0.0001495,53.2155,252.265,94.3895,265.7268,0.0001717,2.446e-05,0.0,0 STARLINK-4513,1 53548U 22101X   24196.42909661  .00002446  00000-0  17170-3 0  9995,2 53548  53.2155 252.2650 0001495  94.3895 265.7268 15.08844268105230,6917.867,95.437,540.767,538.698,0.0
53548.0,STARLINK-4513,PAYLOAD,2024-07-14 13:28:40,15.08847294,0.0001535,53.2159,251.6701,95.6916,264.4251,0.00021473,3.132e-05,0.0,0 STARLINK-4513,1 53548U 22101X   24196.56157511  .00003132  00000-0  21473-3 0  9993,2 53548  53.2159 251.6701 0001535  95.6916 264.4251 15.08847294105259,6917.858,95.437,540.785,538.661,0.0
53548.0,STARLINK-4513,PAYLOAD,2024-07-15 10:08:41,15.0884049,0.0001315,53.2141,247.8047,86.7059,273.4083,0.00012113,1.64e-05,0.0,0 STARLINK-4513,1 53548U 22101X   24197.42269776  .00001640  00000-0  12113-3 0  9999,2 53548  53.2141 247.8047 0001315  86.7059 273.4083 15.08840490105383,6917.879,95.438,540.654,538.834,0.0
53548.0,STARLINK-4513,PAYLOAD,2024-07-16 03:37:56,15.08829498,0.0001274,53.2142,244.5341,88.2499,271.8639,0.00035231,5.322e-05,0.0,0 STARLINK-4513,1 53548U 22101X   24198.15134263  .00005322  00000-0  35231-3 0  9999,2 53548  53.2142 244.5341 0001274  88.2499 271.8639 15.08829498105490,6917.912,95.438,540.659,538.896,0.0
53548.0,STARLINK-4513,PAYLOAD,2024-07-16 09:59:28,15.08840151,0.0001233,53.215,243.3441,83.9765,276.1367,-2.6726e-05,-7.13e-06,0.0,0 STARLINK-4513,1 53548U 22101X   24198.41629884 -.00000713  00000-0 -26726-4 0  9997,2 53548  53.2150 243.3441 0001233  83.9765 276.1367 15.08840151105530,6917.88,95.438,540.598,538.892,0.0
53548.0,STARLINK-4513,PAYLOAD,2024-07-17 09:50:15,15.08830138,0.0001217,53.2155,238.8822,80.2821,279.8309,-1.8316e-05,-5.79e-06,0.0,0 STARLINK-4513,1 53548U 22101X   24199.40990671 -.00000579  00000-0 -18316-4 0  9998,2 53548  53.2155 238.8822 0001217  80.2821 279.8309 15.08830138105688,6917.911,95.438,540.617,538.934,0.0
53548.0,STARLINK-4513,PAYLOAD,2024-07-18 11:16:26,15.08836406,0.0001206,53.2152,234.1251,86.024,274.089,8.189e-05,1.016e-05,0.0,0 STARLINK-4513,1 53548U 22101X   24200.46974577  .00001016  00000-0  81890-4 0  9996,2 53548  53.2152 234.1251 0001206  86.0240 274.0890 15.08836406105841,6917.891,95.438,540.591,538.922,0.0
53548.0,STARLINK-4513,PAYLOAD,2024-07-19 11:07:12,15.08841247,0.0001214,53.215,229.6644,91.592,268.5212,0.00017555,2.507e-05,0.0,0 STARLINK-4513,1 53548U 22101X   24201.46334187  .00002507  00000-0  17555-3 0  9996,2 53548  53.2150 229.6644 0001214  91.5920 268.5212 15.08841247105990,6917.877,95.437,540.581,538.902,0.0
53548.0,STARLINK-4513,PAYLOAD,2024-07-19 19:04:08,15.08846177,0.0001236,53.2151,228.1776,91.4766,268.6368,0.00016124,2.28e-05,0.0,0 STARLINK-4513,1 53548U 22101X   24201.79453889  .00002280  00000-0  16124-3 0  9992,2 53548  53.2151 228.1776 0001236  91.4766 268.6368 15.08846177106049,6917.862,95.437,540.582,538.871,0.0
53548.0,STARLINK-4513,PAYLOAD,2024-07-20 10:57:59,15.08841766,0.0001269,53.2148,225.2036,96.2999,263.8138,0.00010431,1.373e-05,0.0,0 STARLINK-4513,1 53548U 22101X   24202.45694333  .00001373  00000-0  10431-3 0  9994,2 53548  53.2148 225.2036 0001269  96.2999 263.8138 15.08841766106141,6917.875,95.437,540.618,538.862,0.0
53548.0,STARLINK-4513,PAYLOAD,2024-07-20 18:54:55,15.08848057,0.0001239,53.215,223.7168,93.0771,267.0363,0.00010313,1.354e-05,0.0,0 STARLINK-4513,1 53548U 22101X   24202.78813894  .00001354  00000-0  10313-3 0  9993,2 53548  53.2150 223.7168 0001239  93.0771 267.0363 15.08848057106194,6917.856,95.437,540.578,538.864,0.0
53548.0,STARLINK-4513,PAYLOAD,2024-07-21 07:37:55,15.08905135,0.0001267,53.2149,221.3356,126.6015,233.5094,0.00054168,8.359e-05,0.0,0 STARLINK-4513,1 53548U 22101X   24203.31800611  .00008359  00000-0  54168-3 0  9994,2 53548  53.2149 221.3356 0001267 126.6015 233.5094 15.08905135106279,6917.681,95.433,540.423,538.67,0.0
53548.0,STARLINK-4513,PAYLOAD,2024-07-22 04:18:00,15.08839042,0.0001187,53.215,217.4692,96.8887,263.224,7.4262e-05,8.94e-06,0.0,0 STARLINK-4513,1 53548U 22101X   24204.17917741  .00000894  00000-0  74262-4 0  9996,2 53548  53.2150 217.4692 0001187  96.8887 263.2240 15.08839042106407,6917.883,95.438,540.569,538.927,0.0
53548.0,STARLINK-4513,PAYLOAD,2024-07-22 10:39:33,15.08835894,0.0001079,53.2129,216.2835,75.6188,284.4924,-9.0885e-05,-1.734e-05,0.0,0 STARLINK-4513,1 53548U 22101X   24204.44413852 -.00001734  00000-0 -90885-4 0  9995,2 53548  53.2129 216.2835 0001079  75.6188 284.4924 15.08835894106447,6917.893,95.438,540.504,539.011,0.0
53548.0,STARLINK-4513,PAYLOAD,2024-07-23 07:19:34,15.08848584,0.0001376,53.2153,212.4183,82.99,277.1249,-0.00012342,-2.252e-05,0.0,0 STARLINK-4513,1 53548U 22101X   24205.30525698 -.00002252  00000-0 -12342-3 0  9990,2 53548  53.2153 212.4183 0001376  82.9900 277.1249 15.08848584106574,6917.854,95.437,540.671,538.767,0.0
53548.0,STARLINK-4513,PAYLOAD,2024-07-24 05:34:58,15.08829461,0.0001359,53.2152,208.2554,88.1313,271.9834,0.00014862,2.078e-05,0.0,0 STARLINK-4513,1 53548U 22101X   24206.23262694  .00002078  00000-0  14862-3 0  9990,2 53548  53.2152 208.2554 0001359  88.1313 271.9834 15.08829461106716,6917.913,95.438,540.718,538.837,0.0
53548.0,STARLINK-4513,PAYLOAD,2024-07-24 07:10:22,15.0882944,0.0001353,53.2152,207.958,87.9242,272.1905,0.00014768,2.063e-05,0.0,0 STARLINK-4513,1 53548U 22101X   24206.29886778  .00002063  00000-0  14768-3 0  9990,2 53548  53.2152 207.9580 0001353  87.9242 272.1905 15.08829440106723,6917.913,95.438,540.714,538.842,0.0
53548.0,STARLINK-4513,PAYLOAD,2024-07-25 05:25:46,15.08837176,0.000136,53.2153,203.7945,87.6156,272.4992,0.00010718,1.418e-05,0.0,0 STARLINK-4513,1 53548U 22101X   24207.22622877  .00001418  00000-0  10718-3 0  9996,2 53548  53.2153 203.7945 0001360  87.6156 272.4992 15.08837176106861,6917.889,95.438,540.695,538.813,0.0
53548.0,STARLINK-4513,PAYLOAD,2024-07-25 08:36:32,15.08838622,0.0001372,53.2154,203.1999,87.6933,272.4216,0.00011613,1.561e-05,0.0,0 STARLINK-4513,1 53548U 22101X   24207.35870804  .00001561  00000-0  11613-3 0  9999,2 53548  53.2154 203.1999 0001372  87.6933 272.4216 15.08838622106889,6917.885,95.438,540.699,538.8,0.0
53548.0,STARLINK-4513,PAYLOAD,2024-07-25 22:55:00,15.08837115,0.0001342,53.2156,200.5233,91.4079,268.7067,0.00011522,1.546e-05,0.0,0 STARLINK-4513,1 53548U 22101X   24207.95486856  .00001546  00000-0  11522-3 0  9997,2 53548  53.2156 200.5233 0001342  91.4079 268.7067 15.08837115106972,6917.889,95.438,540.683,538.826,0.0
53548.0,STARLINK-4513,PAYLOAD,2024-07-26 06:51:56,15.08837568,0.0001317,53.2152,199.0354,89.5304,270.5839,0.00011221,1.498e-05,0.0,0 STARLINK-4513,1 53548U 22101X   24208.28606970  .00001498  00000-0  11221-3 0  9997,2 53548  53.2152 199.0354 0001317  89.5304 270.5839 15.08837568107022,6917.888,95.438,540.664,538.842,0.0
